[{"OBJECT_NAME":"UHETSAT","OBJECT_ID":"2023-185E","EPOCH":"2026-03-09T22:39:26.455680","MEAN_MOTION":15.29797662,"ECCENTRICITY":0.00118435,"INCLINATION":97.3584,"RA_OF_ASC_NODE":137.3576,"ARG_OF_PERICENTER":307.7346,"MEAN_ANOMALY":52.2821,"EPHEMERIS_TYPE":0,"CLASSIFICATION_TYPE":"U","NORAD_CAT_ID":58466,"ELEMENT_SET_NO":999,"REV_AT_EPOCH":12611,"BSTAR":0.00030513019,"MEAN_MOTION_DOT":8.749e-5,"MEAN_MOTION_DDOT":0},{"OBJECT_NAME":"STARLINK-35614","OBJECT_ID":"2025-240U","EPOCH":"2026-03-09T08:34:31.297152","MEAN_MOTION":15.30198884,"ECCENTRICITY":0.00013363,"INCLINATION":53.1592,"RA_OF_ASC_NODE":64.6241,"ARG_OF_PERICENTER":89.4676,"MEAN_ANOMALY":270.6478,"EPHEMERIS_TYPE":0,"CLASSIFICATION_TYPE":"U","NORAD_CAT_ID":66164,"ELEMENT_SET_NO":999,"REV_AT_EPOCH":2193,"BSTAR":0.00057529529,"MEAN_MOTION_DOT":0.00016717,"MEAN_MOTION_DDOT":0}]
